[{"OBJECT_NAME":"STARLINK-35055","OBJECT_ID":"2025-200E","EPOCH":"2026-03-26T10:55:06.065184","MEAN_MOTION":15.0566324,"ECCENTRICITY":7.07e-5,"INCLINATION":97.6027,"RA_OF_ASC_NODE":156.3269,"ARG_OF_PERICENTER":102.4618,"MEAN_ANOMALY":257.6688,"EPHEMERIS_TYPE":0,"CLASSIFICATION_TYPE":"U","NORAD_CAT_ID":65524,"ELEMENT_SET_NO":999,"REV_AT_EPOCH":3165,"BSTAR":0.00034992,"MEAN_MOTION_DOT":4.994e-5,"MEAN_MOTION_DDOT":0},{"OBJECT_NAME":"STARLINK-35057","OBJECT_ID":"2025-200F","EPOCH":"2026-03-26T10:07:14.638080","MEAN_MOTION":15.05653024,"ECCENTRICITY":2.23e-5,"INCLINATION":97.6029,"RA_OF_ASC_NODE":156.2174,"ARG_OF_PERICENTER":108.7772,"MEAN_ANOMALY":251.3479,"EPHEMERIS_TYPE":0,"CLASSIFICATION_TYPE":"U","NORAD_CAT_ID":65525,"ELEMENT_SET_NO":999,"REV_AT_EPOCH":3164,"BSTAR":0.0002735,"MEAN_MOTION_DOT":3.888e-5,"MEAN_MOTION_DDOT":0},{"OBJECT_NAME":"STARLINK-34674","OBJECT_ID":"2025-200G","EPOCH":"2026-03-26T12:02:53.850624","MEAN_MOTION":15.05663435,"ECCENTRICITY":6.07e-5,"INCLINATION":97.6021,"RA_OF_ASC_NODE":156.4197,"ARG_OF_PERICENTER":144.3215,"MEAN_ANOMALY":215.8053,"EPHEMERIS_TYPE":0,"CLASSIFICATION_TYPE":"U","NORAD_CAT_ID":65526,"ELEMENT_SET_NO":999,"REV_AT_EPOCH":3167,"BSTAR":0.00017609,"MEAN_MOTION_DOT":2.482e-5,"MEAN_MOTION_DDOT":0},{"OBJECT_NAME":"STARLINK-35067","OBJECT_ID":"2025-200H","EPOCH":"2026-03-26T11:23:00.377088","MEAN_MOTION":15.05658903,"ECCENTRICITY":4.13e-5,"INCLINATION":97.604,"RA_OF_ASC_NODE":156.2994,"ARG_OF_PERICENTER":89.2883,"MEAN_ANOMALY":270.8391,"EPHEMERIS_TYPE":0,"CLASSIFICATION_TYPE":"U","NORAD_CAT_ID":65527,"ELEMENT_SET_NO":999,"REV_AT_EPOCH":3165,"BSTAR":0.00026213,"MEAN_MOTION_DOT":3.724e-5,"MEAN_MOTION_DDOT":0},{"OBJECT_NAME":"STARLINK-35063","OBJECT_ID":"2025-200J","EPOCH":"2026-03-26T06:59:50.258688","MEAN_MOTION":15.05663519,"ECCENTRICITY":0.0001047,"INCLINATION":97.6031,"RA_OF_ASC_NODE":156.2395,"ARG_OF_PERICENTER":80.4962,"MEAN_ANOMALY":279.6383,"EPHEMERIS_TYPE":0,"CLASSIFICATION_TYPE":"U","NORAD_CAT_ID":65528,"ELEMENT_SET_NO":999,"REV_AT_EPOCH":3163,"BSTAR":-0.00027445,"MEAN_MOTION_DOT":-4.02e-5,"MEAN_MOTION_DDOT":0},{"OBJECT_NAME":"STARLINK-35077","OBJECT_ID":"2025-200K","EPOCH":"2026-03-26T11:15:02.144448","MEAN_MOTION":15.05653505,"ECCENTRICITY":5.52e-5,"INCLINATION":97.6044,"RA_OF_ASC_NODE":156.307,"ARG_OF_PERICENTER":147.1249,"MEAN_ANOMALY":213.0012,"EPHEMERIS_TYPE":0,"CLASSIFICATION_TYPE":"U","NORAD_CAT_ID":65529,"ELEMENT_SET_NO":999,"REV_AT_EPOCH":3165,"BSTAR":0.00013689,"MEAN_MOTION_DOT":1.915e-5,"MEAN_MOTION_DDOT":0},{"OBJECT_NAME":"STARLINK-35152","OBJECT_ID":"2025-200L","EPOCH":"2026-03-26T04:24:21.699936","MEAN_MOTION":15.05638329,"ECCENTRICITY":0.00018279,"INCLINATION":97.6016,"RA_OF_ASC_NODE":156.0719,"ARG_OF_PERICENTER":84.3424,"MEAN_ANOMALY":275.8011,"EPHEMERIS_TYPE":0,"CLASSIFICATION_TYPE":"U","NORAD_CAT_ID":65530,"ELEMENT_SET_NO":999,"REV_AT_EPOCH":3161,"BSTAR":0.0011253648,"MEAN_MOTION_DOT":0.00016209,"MEAN_MOTION_DDOT":0},{"OBJECT_NAME":"STARLINK-35064","OBJECT_ID":"2025-200M","EPOCH":"2026-03-26T11:03:06.150240","MEAN_MOTION":15.05631256,"ECCENTRICITY":6.84e-5,"INCLINATION":97.6025,"RA_OF_ASC_NODE":156.3185,"ARG_OF_PERICENTER":84.3454,"MEAN_ANOMALY":275.7851,"EPHEMERIS_TYPE":0,"CLASSIFICATION_TYPE":"U","NORAD_CAT_ID":65531,"ELEMENT_SET_NO":999,"REV_AT_EPOCH":3165,"BSTAR":0.00020519,"MEAN_MOTION_DOT":2.9e-5,"MEAN_MOTION_DDOT":0},{"OBJECT_NAME":"STARLINK-35170","OBJECT_ID":"2025-200N","EPOCH":"2026-03-26T11:58:54.411168","MEAN_MOTION":15.05658273,"ECCENTRICITY":5.1e-5,"INCLINATION":97.6023,"RA_OF_ASC_NODE":156.4236,"ARG_OF_PERICENTER":110.2982,"MEAN_ANOMALY":249.8299,"EPHEMERIS_TYPE":0,"CLASSIFICATION_TYPE":"U","NORAD_CAT_ID":65532,"ELEMENT_SET_NO":999,"REV_AT_EPOCH":3166,"BSTAR":0.00020792,"MEAN_MOTION_DOT":2.941e-5,"MEAN_MOTION_DDOT":0},{"OBJECT_NAME":"STARLINK-35172","OBJECT_ID":"2025-200P","EPOCH":"2026-03-26T11:26:59.527968","MEAN_MOTION":15.05657636,"ECCENTRICITY":4.66e-5,"INCLINATION":97.6036,"RA_OF_ASC_NODE":156.2954,"ARG_OF_PERICENTER":228.4769,"MEAN_ANOMALY":131.6418,"EPHEMERIS_TYPE":0,"CLASSIFICATION_TYPE":"U","NORAD_CAT_ID":65533,"ELEMENT_SET_NO":999,"REV_AT_EPOCH":3165,"BSTAR":0.00028837,"MEAN_MOTION_DOT":4.103e-5,"MEAN_MOTION_DDOT":0},{"OBJECT_NAME":"STARLINK-35125","OBJECT_ID":"2025-200Q","EPOCH":"2026-03-26T03:40:27.544512","MEAN_MOTION":15.05658014,"ECCENTRICITY":8.072e-5,"INCLINATION":97.6034,"RA_OF_ASC_NODE":155.9597,"ARG_OF_PERICENTER":96.8638,"MEAN_ANOMALY":263.2681,"EPHEMERIS_TYPE":0,"CLASSIFICATION_TYPE":"U","NORAD_CAT_ID":65534,"ELEMENT_SET_NO":999,"REV_AT_EPOCH":3160,"BSTAR":0.00034064322,"MEAN_MOTION_DOT":4.859e-5,"MEAN_MOTION_DDOT":0},{"OBJECT_NAME":"STARLINK-35133","OBJECT_ID":"2025-200R","EPOCH":"2026-03-26T10:31:10.949088","MEAN_MOTION":15.0565831,"ECCENTRICITY":7.79e-5,"INCLINATION":97.6023,"RA_OF_ASC_NODE":156.3505,"ARG_OF_PERICENTER":148.3833,"MEAN_ANOMALY":211.7441,"EPHEMERIS_TYPE":0,"CLASSIFICATION_TYPE":"U","NORAD_CAT_ID":65535,"ELEMENT_SET_NO":999,"REV_AT_EPOCH":3165,"BSTAR":0.00024429,"MEAN_MOTION_DOT":3.467e-5,"MEAN_MOTION_DDOT":0},{"OBJECT_NAME":"STARLINK-35044","OBJECT_ID":"2025-200S","EPOCH":"2026-03-26T10:59:05.483040","MEAN_MOTION":15.05658508,"ECCENTRICITY":9.54e-5,"INCLINATION":97.6029,"RA_OF_ASC_NODE":156.3232,"ARG_OF_PERICENTER":99.058,"MEAN_ANOMALY":261.0754,"EPHEMERIS_TYPE":0,"CLASSIFICATION_TYPE":"U","NORAD_CAT_ID":65536,"ELEMENT_SET_NO":999,"REV_AT_EPOCH":3165,"BSTAR":0.0002301,"MEAN_MOTION_DOT":3.262e-5,"MEAN_MOTION_DDOT":0},{"OBJECT_NAME":"STARLINK-35136","OBJECT_ID":"2025-200T","EPOCH":"2026-03-26T03:20:31.278624","MEAN_MOTION":15.05655763,"ECCENTRICITY":3.561e-5,"INCLINATION":97.6043,"RA_OF_ASC_NODE":155.9756,"ARG_OF_PERICENTER":105.796,"MEAN_ANOMALY":254.3306,"EPHEMERIS_TYPE":0,"CLASSIFICATION_TYPE":"U","NORAD_CAT_ID":65537,"ELEMENT_SET_NO":999,"REV_AT_EPOCH":3151,"BSTAR":0.00013523163,"MEAN_MOTION_DOT":1.891e-5,"MEAN_MOTION_DDOT":0},{"OBJECT_NAME":"STARLINK-35144","OBJECT_ID":"2025-200U","EPOCH":"2026-03-26T11:11:02.765472","MEAN_MOTION":15.05656887,"ECCENTRICITY":7.87e-5,"INCLINATION":97.6038,"RA_OF_ASC_NODE":156.3115,"ARG_OF_PERICENTER":216.3805,"MEAN_ANOMALY":143.7368,"EPHEMERIS_TYPE":0,"CLASSIFICATION_TYPE":"U","NORAD_CAT_ID":65538,"ELEMENT_SET_NO":999,"REV_AT_EPOCH":3165,"BSTAR":0.00023009,"MEAN_MOTION_DOT":3.261e-5,"MEAN_MOTION_DDOT":0},{"OBJECT_NAME":"STARLINK-35110","OBJECT_ID":"2025-200V","EPOCH":"2026-03-26T10:19:15.432672","MEAN_MOTION":15.05651134,"ECCENTRICITY":0.0001384,"INCLINATION":97.6019,"RA_OF_ASC_NODE":156.3619,"ARG_OF_PERICENTER":92.2157,"MEAN_ANOMALY":267.9228,"EPHEMERIS_TYPE":0,"CLASSIFICATION_TYPE":"U","NORAD_CAT_ID":65539,"ELEMENT_SET_NO":999,"REV_AT_EPOCH":3165,"BSTAR":0.00054117,"MEAN_MOTION_DOT":7.757e-5,"MEAN_MOTION_DDOT":0},{"OBJECT_NAME":"STARLINK-35052","OBJECT_ID":"2025-200W","EPOCH":"2026-03-26T10:43:08.511456","MEAN_MOTION":15.05655989,"ECCENTRICITY":6.62e-5,"INCLINATION":97.6025,"RA_OF_ASC_NODE":156.3383,"ARG_OF_PERICENTER":160.5126,"MEAN_ANOMALY":199.6127,"EPHEMERIS_TYPE":0,"CLASSIFICATION_TYPE":"U","NORAD_CAT_ID":65540,"ELEMENT_SET_NO":999,"REV_AT_EPOCH":3157,"BSTAR":0.00016258,"MEAN_MOTION_DOT":2.286e-5,"MEAN_MOTION_DDOT":0}]
