STARLINK-35055          
1 65524U 25200E   26085.45493131  .00004994  00000+0  34992-3 0  9997
2 65524  97.6027 156.3269 0000707 102.4618 257.6688 15.05663240 31652
STARLINK-35057          
1 65525U 25200F   26085.42169720  .00003888  00000+0  27350-3 0  9990
2 65525  97.6029 156.2174 0000223 108.7772 251.3479 15.05653024 31649
STARLINK-34674          
1 65526U 25200G   26085.50201216  .00002482  00000+0  17609-3 0  9992
2 65526  97.6021 156.4197 0000607 144.3215 215.8053 15.05663435 31676
STARLINK-35067          
1 65527U 25200H   26085.47430992  .00003724  00000+0  26213-3 0  9995
2 65527  97.6040 156.2994 0000413  89.2883 270.8391 15.05658903 31652
STARLINK-35063          
1 65528U 25200J   26085.29155392 -.00004020  00000+0 -27445-3 0  9994
2 65528  97.6031 156.2395 0001047  80.4962 279.6383 15.05663519 31638
STARLINK-35077          
1 65529U 25200K   26085.46877482  .00001915  00000+0  13689-3 0  9998
2 65529  97.6044 156.3070 0000552 147.1249 213.0012 15.05653505 31650
STARLINK-35152          
1 65530U 25200L   26085.18358449  .00016209  00000+0  11254-2 0  9993
2 65530  97.6016 156.0719 0001827  84.3424 275.8011 15.05638329 31619
STARLINK-35064          
1 65531U 25200M   26085.46048785  .00002900  00000+0  20519-3 0  9992
2 65531  97.6025 156.3185 0000684  84.3454 275.7851 15.05631256 31650
STARLINK-35170          
1 65532U 25200N   26085.49924087  .00002941  00000+0  20792-3 0  9992
2 65532  97.6023 156.4236 0000510 110.2982 249.8299 15.05658273 31667
STARLINK-35172          
1 65533U 25200P   26085.47707787  .00004103  00000+0  28837-3 0  9997
2 65533  97.6036 156.2954 0000466 228.4769 131.6418 15.05657636 31654
STARLINK-35125          
1 65534U 25200Q   26085.15309658  .00004859  00000+0  34064-3 0  9995
2 65534  97.6034 155.9597 0000807  96.8638 263.2681 15.05658014 31603
STARLINK-35133          
1 65535U 25200R   26085.43832117  .00003467  00000+0  24429-3 0  9996
2 65535  97.6023 156.3505 0000779 148.3833 211.7441 15.05658310 31650
STARLINK-35044          
1 65536U 25200S   26085.45770235  .00003262  00000+0  23010-3 0  9999
2 65536  97.6029 156.3232 0000954  99.0580 261.0754 15.05658508 31654
STARLINK-35136          
1 65537U 25200T   26085.13925091  .00001891  00000+0  13523-3 0  9991
2 65537  97.6043 155.9756 0000356 105.7960 254.3306 15.05655763 31513
STARLINK-35144          
1 65538U 25200U   26085.46600423  .00003261  00000+0  23009-3 0  9990
2 65538  97.6038 156.3115 0000787 216.3805 143.7368 15.05656887 31659
STARLINK-35110          
1 65539U 25200V   26085.43003973  .00007757  00000+0  54117-3 0  9993
2 65539  97.6019 156.3619 0001384  92.2157 267.9228 15.05651134 31657
STARLINK-35052          
1 65540U 25200W   26085.44662629  .00002286  00000+0  16258-3 0  9991
2 65540  97.6025 156.3383 0000662 160.5126 199.6127 15.05655989 31579
